LUR-1                   
1 60506U 24149AQ  26068.79566301  .00009121  00000+0  32985-3 0  9998
2 60506  97.3790 148.4255 0002777 309.1571  50.9421 15.28658648 86785
STARLINK-33814          
1 63582U 25076P   26068.03740400  .00047391  00000+0  17192-2 0  9999
2 63582  43.0039 325.1199 0001404 269.9064  90.1627 15.27607641 51730
